KAITUO 1B               
1 40912U 15049P   17326.09736575  .00001835  00000-0  92794-4 0  9998
2 40912  97.4508 331.4421 0016147  19.0545  21.5224 15.18201428120249
TIANWANG 1C (TW-1C)     
1 40926U 15051B   17326.06789130  .00009894  00000-0  20632-3 0  9992
2 40926  97.2116   4.5290 0009720 324.2197  90.8086 15.45709309121283
TIANWANG 1B (TW-1B)     
1 40927U 15051C   17326.12502275  .00009947  00000-0  21568-3 0  9991
2 40927  97.2197   4.5289 0009881 335.8078  87.2945 15.44556772121226
TIANWANG 1A (TW-1A)     
1 40928U 15051D   17326.05448253  .00003535  00000-0  98300-4 0  9995
2 40928  97.2105 359.0108 0012184 358.7104  55.2508 15.37439085120945
LAPAN-A2 (IO-86)        
1 40931U 15052B   17326.10017542  .00000829  00000-0  26431-4 0  9998
2 40931   5.9971 186.7878 0013179 317.9895  41.9091 14.76556445116344
LQSAT                   
1 40958U 15057A   17326.11835574  .00000068  00000-0  18383-4 0  9998
2 40958  97.9647  38.5609 0016740 281.9167  78.0190 14.73001644114363
CHUBUSAT-2              
1 41338U 16012B   17326.01776638  .00000503  00000-0  32748-4 0  9992
2 41338  31.0023 189.7822 0013941 182.6289 177.4274 14.99872236 96706
CHUBUSAT-3              
1 41339U 16012C   17325.99135864  .00000526  00000-0  34337-4 0  9990
2 41339  31.0089 188.8485 0013843 189.3324 170.7064 15.00068004 96682
OUFTI-1                 
1 41458U 16025C   17326.10661391  .00001690  00000-0  92170-4 0  9991
2 41458  98.1655  12.6596 0173542 121.3544 240.4811 15.03944924 86307
E-ST@R-II               
1 41459U 16025D   17326.08020525  .00003292  00000-0  17591-3 0  9990
2 41459  98.1668  12.5387 0174061 122.0428 239.7848 15.03740087 86298
AAUSAT 4                
1 41460U 16025E   17326.17146848  .00002438  00000-0  13078-3 0  9996
2 41460  98.1589  12.8630 0166314 119.0397 242.7643 15.04897119 86342
NUSAT 1 (LO-87)         
1 41557U 16033B   17326.16829864  .00002734  00000-0  10343-3 0  9998
2 41557  97.4530  45.6523 0014515 163.4280 196.7437 15.27727825 82549
BEESAT-4                
1 41619U 16040W   17325.87977569  .00002707  00000-0  12343-3 0  9990
2 41619  97.4439  26.6428 0010579 231.6717 128.3568 15.21463398 66564
PRATHAM                 
1 41783U 16059A   17325.75478469  .00000124  00000-0  33436-4 0  9992
2 41783  98.1481  25.3371 0034151  28.8083 331.4996 14.62880757 61639
ALSAT 1N                
1 41789U 16059G   17326.15927134  .00000143  00000-0  36239-4 0  9996
2 41789  98.1484  26.5455 0029090  21.3287 338.9128 14.64102386 61720
NAYIF-1 (EO-88)         
1 42017U 17008BX  17326.02198455  .00002931  00000-0  12491-3 0  9998
2 42017  97.4765  27.0739 0007380  40.0215 320.1565 15.23736458 42510
LILACSAT-1              
1 42725U 98067ME  17326.19917323  .00026937  00000-0  32228-3 0  9991
2 42725  51.6389 326.6664 0004689 161.5468 198.5697 15.60767472 28106
MAX VALIER SAT          
1 42778U 17036P   17325.69511572  .00001972  00000-0  92312-4 0  9999
2 42778  97.4331  23.5608 0014401  78.5715 281.7138 15.20837301 22963
